MALLIGYONG-1            
1 58400U 23179A   24182.93024969  .00007326  00000+0  33096-3 0  9999
2 58400  97.4027  69.5461 0003419 120.3316 239.8258 15.21247346 33819
